[{"OBJECT_NAME":"NOAA 1","OBJECT_ID":"1970-106A","EPOCH":"2026-03-11T01:46:21.999072","MEAN_MOTION":12.54049227,"ECCENTRICITY":0.00317872,"INCLINATION":101.3508,"RA_OF_ASC_NODE":109.0455,"ARG_OF_PERICENTER":178.2067,"MEAN_ANOMALY":196.8099,"EPHEMERIS_TYPE":0,"CLASSIFICATION_TYPE":"U","NORAD_CAT_ID":4793,"ELEMENT_SET_NO":999,"REV_AT_EPOCH":52839,"BSTAR":-4.474048e-5,"MEAN_MOTION_DOT":-5.0e-7,"MEAN_MOTION_DDOT":0},{"OBJECT_NAME":"NOAA 2 (ITOS-D)","OBJECT_ID":"1972-082A","EPOCH":"2026-03-11T00:08:48.970176","MEAN_MOTION":12.53211822,"ECCENTRICITY":0.00039467,"INCLINATION":102.0163,"RA_OF_ASC_NODE":87.4753,"ARG_OF_PERICENTER":2.5014,"MEAN_ANOMALY":25.1787,"EPHEMERIS_TYPE":0,"CLASSIFICATION_TYPE":"U","NORAD_CAT_ID":6235,"ELEMENT_SET_NO":999,"REV_AT_EPOCH":44265,"BSTAR":8.8805508e-5,"MEAN_MOTION_DOT":-3.2e-7,"MEAN_MOTION_DDOT":0},{"OBJECT_NAME":"NOAA 3","OBJECT_ID":"1973-086A","EPOCH":"2026-03-11T06:33:35.459712","MEAN_MOTION":12.4039171,"ECCENTRICITY":0.00061927,"INCLINATION":102.2906,"RA_OF_ASC_NODE":83.2672,"ARG_OF_PERICENTER":305.7453,"MEAN_ANOMALY":65.3479,"EPHEMERIS_TYPE":0,"CLASSIFICATION_TYPE":"U","NORAD_CAT_ID":6920,"ELEMENT_SET_NO":999,"REV_AT_EPOCH":36976,"BSTAR":9.0815753e-5,"MEAN_MOTION_DOT":-3.4e-7,"MEAN_MOTION_DDOT":0},{"OBJECT_NAME":"NOAA 4","OBJECT_ID":"1974-089A","EPOCH":"2026-03-11T01:29:48.217632","MEAN_MOTION":12.53201567,"ECCENTRICITY":0.00091096,"INCLINATION":102.0071,"RA_OF_ASC_NODE":81.8082,"ARG_OF_PERICENTER":26.1034,"MEAN_ANOMALY":346.9601,"EPHEMERIS_TYPE":0,"CLASSIFICATION_TYPE":"U","NORAD_CAT_ID":7529,"ELEMENT_SET_NO":999,"REV_AT_EPOCH":34723,"BSTAR":3.6852127e-5,"MEAN_MOTION_DOT":-4.1e-7,"MEAN_MOTION_DDOT":0},{"OBJECT_NAME":"NOAA 5","OBJECT_ID":"1976-077A","EPOCH":"2026-03-10T23:03:09.403200","MEAN_MOTION":12.37828373,"ECCENTRICITY":0.0009819,"INCLINATION":102.2962,"RA_OF_ASC_NODE":55.4739,"ARG_OF_PERICENTER":158.2904,"MEAN_ANOMALY":212.8461,"EPHEMERIS_TYPE":0,"CLASSIFICATION_TYPE":"U","NORAD_CAT_ID":9057,"ELEMENT_SET_NO":999,"REV_AT_EPOCH":24232,"BSTAR":0.00019785,"MEAN_MOTION_DOT":-2.0e-7,"MEAN_MOTION_DDOT":0},{"OBJECT_NAME":"TIROS N","OBJECT_ID":"1978-096A","EPOCH":"2026-03-11T07:00:28.806048","MEAN_MOTION":14.19339111,"ECCENTRICITY":0.00108277,"INCLINATION":98.4632,"RA_OF_ASC_NODE":95.7409,"ARG_OF_PERICENTER":160.6689,"MEAN_ANOMALY":199.49,"EPHEMERIS_TYPE":0,"CLASSIFICATION_TYPE":"U","NORAD_CAT_ID":11060,"ELEMENT_SET_NO":999,"REV_AT_EPOCH":66486,"BSTAR":0.00010815092,"MEAN_MOTION_DOT":1.86e-6,"MEAN_MOTION_DDOT":0},{"OBJECT_NAME":"NOAA 6","OBJECT_ID":"1979-057A","EPOCH":"2026-03-11T02:02:31.685280","MEAN_MOTION":14.35434714,"ECCENTRICITY":0.00098044,"INCLINATION":98.5748,"RA_OF_ASC_NODE":100.2301,"ARG_OF_PERICENTER":182.7298,"MEAN_ANOMALY":177.3835,"EPHEMERIS_TYPE":0,"CLASSIFICATION_TYPE":"U","NORAD_CAT_ID":11416,"ELEMENT_SET_NO":999,"REV_AT_EPOCH":43688,"BSTAR":0.00013591311,"MEAN_MOTION_DOT":3.46e-6,"MEAN_MOTION_DDOT":0},{"OBJECT_NAME":"NOAA 7","OBJECT_ID":"1981-059A","EPOCH":"2026-03-11T03:26:12.370272","MEAN_MOTION":14.17773786,"ECCENTRICITY":0.00114323,"INCLINATION":98.8055,"RA_OF_ASC_NODE":138.1818,"ARG_OF_PERICENTER":183.582,"MEAN_ANOMALY":176.5275,"EPHEMERIS_TYPE":0,"CLASSIFICATION_TYPE":"U","NORAD_CAT_ID":12553,"ELEMENT_SET_NO":999,"REV_AT_EPOCH":31085,"BSTAR":6.1323818e-5,"MEAN_MOTION_DOT":8.1e-7,"MEAN_MOTION_DDOT":0},{"OBJECT_NAME":"NOAA 8","OBJECT_ID":"1983-022A","EPOCH":"2026-03-11T07:17:35.669184","MEAN_MOTION":14.2976755,"ECCENTRICITY":0.00147431,"INCLINATION":98.7373,"RA_OF_ASC_NODE":83.1068,"ARG_OF_PERICENTER":180.7887,"MEAN_ANOMALY":179.3274,"EPHEMERIS_TYPE":0,"CLASSIFICATION_TYPE":"U","NORAD_CAT_ID":13923,"ELEMENT_SET_NO":999,"REV_AT_EPOCH":23708,"BSTAR":8.7298796e-5,"MEAN_MOTION_DOT":1.79e-6,"MEAN_MOTION_DDOT":0},{"OBJECT_NAME":"NOAA 9","OBJECT_ID":"1984-123A","EPOCH":"2026-03-11T01:23:02.167872","MEAN_MOTION":14.17039438,"ECCENTRICITY":0.00136643,"INCLINATION":99.1094,"RA_OF_ASC_NODE":94.3773,"ARG_OF_PERICENTER":267.6197,"MEAN_ANOMALY":151.4582,"EPHEMERIS_TYPE":0,"CLASSIFICATION_TYPE":"U","NORAD_CAT_ID":15427,"ELEMENT_SET_NO":999,"REV_AT_EPOCH":12952,"BSTAR":8.9323798e-5,"MEAN_MOTION_DOT":1.33e-6,"MEAN_MOTION_DDOT":0},{"OBJECT_NAME":"NOAA 10","OBJECT_ID":"1986-073A","EPOCH":"2026-03-11T05:08:20.985792","MEAN_MOTION":14.29145099,"ECCENTRICITY":0.00110117,"INCLINATION":98.7002,"RA_OF_ASC_NODE":63.6038,"ARG_OF_PERICENTER":284.3121,"MEAN_ANOMALY":86.1517,"EPHEMERIS_TYPE":0,"CLASSIFICATION_TYPE":"U","NORAD_CAT_ID":16969,"ELEMENT_SET_NO":999,"REV_AT_EPOCH":5542,"BSTAR":9.5742413e-5,"MEAN_MOTION_DOT":1.98e-6,"MEAN_MOTION_DDOT":0},{"OBJECT_NAME":"NOAA 11","OBJECT_ID":"1988-089A","EPOCH":"2026-03-11T06:29:40.449120","MEAN_MOTION":14.15821188,"ECCENTRICITY":0.00103276,"INCLINATION":98.6096,"RA_OF_ASC_NODE":19.2576,"ARG_OF_PERICENTER":214.6388,"MEAN_ANOMALY":145.4115,"EPHEMERIS_TYPE":0,"CLASSIFICATION_TYPE":"U","NORAD_CAT_ID":19531,"ELEMENT_SET_NO":999,"REV_AT_EPOCH":93362,"BSTAR":6.3809879e-5,"MEAN_MOTION_DOT":8.3e-7,"MEAN_MOTION_DDOT":0},{"OBJECT_NAME":"NOAA 12","OBJECT_ID":"1991-032A","EPOCH":"2026-03-11T05:25:43.358592","MEAN_MOTION":14.2671817,"ECCENTRICITY":0.00128674,"INCLINATION":98.6156,"RA_OF_ASC_NODE":60.2035,"ARG_OF_PERICENTER":318.4817,"MEAN_ANOMALY":41.5385,"EPHEMERIS_TYPE":0,"CLASSIFICATION_TYPE":"U","NORAD_CAT_ID":21263,"ELEMENT_SET_NO":999,"REV_AT_EPOCH":81099,"BSTAR":7.6418777e-5,"MEAN_MOTION_DOT":1.41e-6,"MEAN_MOTION_DDOT":0},{"OBJECT_NAME":"NOAA 13","OBJECT_ID":"1993-050A","EPOCH":"2026-03-11T06:39:48.223872","MEAN_MOTION":14.13637125,"ECCENTRICITY":0.00103639,"INCLINATION":98.6933,"RA_OF_ASC_NODE":17.9804,"ARG_OF_PERICENTER":52.8816,"MEAN_ANOMALY":307.3303,"EPHEMERIS_TYPE":0,"CLASSIFICATION_TYPE":"U","NORAD_CAT_ID":22739,"ELEMENT_SET_NO":999,"REV_AT_EPOCH":67954,"BSTAR":0.00010848463,"MEAN_MOTION_DOT":1.62e-6,"MEAN_MOTION_DDOT":0},{"OBJECT_NAME":"NOAA 14","OBJECT_ID":"1994-089A","EPOCH":"2026-03-11T07:24:40.490208","MEAN_MOTION":14.1465573,"ECCENTRICITY":0.00097041,"INCLINATION":98.5025,"RA_OF_ASC_NODE":44.4467,"ARG_OF_PERICENTER":11.9859,"MEAN_ANOMALY":348.1544,"EPHEMERIS_TYPE":0,"CLASSIFICATION_TYPE":"U","NORAD_CAT_ID":23455,"ELEMENT_SET_NO":999,"REV_AT_EPOCH":60936,"BSTAR":7.3238346e-5,"MEAN_MOTION_DOT":1.0e-6,"MEAN_MOTION_DDOT":0},{"OBJECT_NAME":"NOAA 15","OBJECT_ID":"1998-030A","EPOCH":"2026-03-11T05:47:15.035136","MEAN_MOTION":14.2711322,"ECCENTRICITY":0.0009059,"INCLINATION":98.5162,"RA_OF_ASC_NODE":93.482,"ARG_OF_PERICENTER":274.9321,"MEAN_ANOMALY":85.0826,"EPHEMERIS_TYPE":0,"CLASSIFICATION_TYPE":"U","NORAD_CAT_ID":25338,"ELEMENT_SET_NO":999,"REV_AT_EPOCH":44732,"BSTAR":8.542636e-5,"MEAN_MOTION_DOT":1.65e-6,"MEAN_MOTION_DDOT":0},{"OBJECT_NAME":"NOAA 16","OBJECT_ID":"2000-055A","EPOCH":"2026-03-11T05:25:00.700320","MEAN_MOTION":14.13898566,"ECCENTRICITY":0.00096648,"INCLINATION":98.4704,"RA_OF_ASC_NODE":89.6483,"ARG_OF_PERICENTER":217.5444,"MEAN_ANOMALY":142.5056,"EPHEMERIS_TYPE":0,"CLASSIFICATION_TYPE":"U","NORAD_CAT_ID":26536,"ELEMENT_SET_NO":999,"REV_AT_EPOCH":60988,"BSTAR":8.647919e-5,"MEAN_MOTION_DOT":1.23e-6,"MEAN_MOTION_DDOT":0},{"OBJECT_NAME":"NOAA 17","OBJECT_ID":"2002-032A","EPOCH":"2026-03-11T06:56:42.995328","MEAN_MOTION":14.2619046,"ECCENTRICITY":0.00105642,"INCLINATION":98.8544,"RA_OF_ASC_NODE":34.9359,"ARG_OF_PERICENTER":276.6821,"MEAN_ANOMALY":83.3156,"EPHEMERIS_TYPE":0,"CLASSIFICATION_TYPE":"U","NORAD_CAT_ID":27453,"ELEMENT_SET_NO":999,"REV_AT_EPOCH":23303,"BSTAR":0.0001402757,"MEAN_MOTION_DOT":2.9e-6,"MEAN_MOTION_DDOT":0},{"OBJECT_NAME":"NOAA 18","OBJECT_ID":"2005-018A","EPOCH":"2026-03-11T05:46:11.873280","MEAN_MOTION":14.13711282,"ECCENTRICITY":0.00152617,"INCLINATION":98.8154,"RA_OF_ASC_NODE":151.3259,"ARG_OF_PERICENTER":71.3742,"MEAN_ANOMALY":288.9086,"EPHEMERIS_TYPE":0,"CLASSIFICATION_TYPE":"U","NORAD_CAT_ID":28654,"ELEMENT_SET_NO":999,"REV_AT_EPOCH":7247,"BSTAR":5.2934794e-5,"MEAN_MOTION_DOT":5.6e-7,"MEAN_MOTION_DDOT":0},{"OBJECT_NAME":"NOAA 19","OBJECT_ID":"2009-005A","EPOCH":"2026-03-11T07:01:26.143680","MEAN_MOTION":14.1345711,"ECCENTRICITY":0.00128367,"INCLINATION":98.9604,"RA_OF_ASC_NODE":141.0663,"ARG_OF_PERICENTER":309.8209,"MEAN_ANOMALY":50.1833,"EPHEMERIS_TYPE":0,"CLASSIFICATION_TYPE":"U","NORAD_CAT_ID":33591,"ELEMENT_SET_NO":999,"REV_AT_EPOCH":88065,"BSTAR":4.3983969e-5,"MEAN_MOTION_DOT":3.8e-7,"MEAN_MOTION_DDOT":0},{"OBJECT_NAME":"SUOMI NPP","OBJECT_ID":"2011-061A","EPOCH":"2026-03-11T07:03:13.068000","MEAN_MOTION":14.19544138,"ECCENTRICITY":5.255e-5,"INCLINATION":98.787,"RA_OF_ASC_NODE":11.8838,"ARG_OF_PERICENTER":217.4695,"MEAN_ANOMALY":142.6444,"EPHEMERIS_TYPE":0,"CLASSIFICATION_TYPE":"U","NORAD_CAT_ID":37849,"ELEMENT_SET_NO":999,"REV_AT_EPOCH":74455,"BSTAR":8.0217238e-5,"MEAN_MOTION_DOT":1.25e-6,"MEAN_MOTION_DDOT":0},{"OBJECT_NAME":"NOAA 20 (JPSS-1)","OBJECT_ID":"2017-073A","EPOCH":"2026-03-11T07:24:21.636864","MEAN_MOTION":14.19536672,"ECCENTRICITY":0.00012926,"INCLINATION":98.7692,"RA_OF_ASC_NODE":10.6797,"ARG_OF_PERICENTER":135.5365,"MEAN_ANOMALY":224.5915,"EPHEMERIS_TYPE":0,"CLASSIFICATION_TYPE":"U","NORAD_CAT_ID":43013,"ELEMENT_SET_NO":999,"REV_AT_EPOCH":43058,"BSTAR":7.9775921e-5,"MEAN_MOTION_DOT":1.24e-6,"MEAN_MOTION_DDOT":0},{"OBJECT_NAME":"NOAA 21 (JPSS-2)","OBJECT_ID":"2022-150A","EPOCH":"2026-03-11T06:32:48.947136","MEAN_MOTION":14.1955277,"ECCENTRICITY":0.00026848,"INCLINATION":98.7555,"RA_OF_ASC_NODE":10.5204,"ARG_OF_PERICENTER":103.7689,"MEAN_ANOMALY":256.3786,"EPHEMERIS_TYPE":0,"CLASSIFICATION_TYPE":"U","NORAD_CAT_ID":54234,"ELEMENT_SET_NO":999,"REV_AT_EPOCH":17265,"BSTAR":7.4664142e-5,"MEAN_MOTION_DOT":1.13e-6,"MEAN_MOTION_DDOT":0}]
